     2.11           N: GPS NAV DATA                         RINEX VERSION / TYPE
teqc  2019Feb25                         20221121 12:25:04UTCPGM / RUN BY / DATE
OSX ker:10.11.6|Core i5|gcc 4.3 -m64|OSX ker:10.10+|=+      COMMENT
    4.6566D-09  1.4901D-08 -5.9605D-08 -1.1921D-07          ION ALPHA
    8.1920D+04  8.1920D+04 -6.5536D+04 -5.2429D+05          ION BETA
   -5.587935447693D-09-1.776356839400D-14    61440     1540 DELTA-UTC: A0,A1,T,W
                                                            END OF HEADER
18 09  7 10 23 59 44.0-4.104804247618D-05 3.183231456205D-12 0.000000000000D+00
    1.200000000000D+01-2.162500000000D+01 4.711624829515D-09-2.112370959426D+00
   -1.130625605583D-06 1.066362683196D-02 8.653849363327D-06 5.153606912613D+03
    5.183840000000D+05 4.656612873077D-08-7.430578148834D-02-1.247972249985D-07
    9.420052319905D-01 2.031875000000D+02-2.407673750853D+00-7.942473693053D-09
   -4.314465429089D-10 1.000000000000D+00 1.539000000000D+03 0.000000000000D+00
    2.000000000000D+00 0.000000000000D+00-1.071020960808D-08 1.200000000000D+01
    5.112960000000D+05 4.000000000000D+00
19 09  7 10 23 59 44.0 1.951307058334D-05-1.364242052659D-12 0.000000000000D+00
    1.000000000000D+01-3.406250000000D+00 4.631621497055D-09 2.243519161658D+00
    1.210719347000D-07 5.735326441936D-03 1.088902354240D-05 5.153633234024D+03
    5.183840000000D+05 8.940696716309D-08-2.123874769349D+00 2.086162567139D-07
    9.573919088387D-01 1.667500000000D+02-3.296330153839D-01-7.966403261244D-09
    3.000124967247D-10 1.000000000000D+00 1.539000000000D+03 0.000000000000D+00
    2.000000000000D+00 0.000000000000D+00-1.443549990654D-08 1.000000000000D+01
    5.112180000000D+05 4.000000000000D+00
11 09  7 10 23 59 44.0-1.007830724120D-05-1.591615728103D-12 0.000000000000D+00
    5.000000000000D+00 3.296875000000D+01 6.672420790251D-09-4.798025027287D-02
    1.793727278709D-06 9.475403348915D-03 5.176290869713D-06 5.153683683395D+03
    5.183840000000D+05-1.303851604462D-08-1.366130317566D+00 7.823109626770D-08
    8.888398338954D-01 2.358125000000D+02 7.042945892680D-01-9.253599735286D-09
    8.893227581483D-11 1.000000000000D+00 1.539000000000D+03 0.000000000000D+00
    2.000000000000D+00 0.000000000000D+00-1.164153218269D-08 5.000000000000D+00
    5.150520000000D+05 4.000000000000D+00
